{
  "norad_id": 58845,
  "name": "STARLINK-31264",
  "history": [
    {
      "epoch": "2026-03-28T17:46:25.102848Z",
      "apogee_km": 476.0132446875032,
      "perigee_km": 474.41792127323697,
      "latitude_deg": -2.776988973989475e-06,
      "longitude_deg": 112.64772942245446,
      "height_km": 476.09261522694493,
      "semi_major_axis_km": 6853.352582980369,
      "eccentricity": 0.00011639,
      "inclination_deg": 53.1595,
      "raan_deg": 205.409,
      "arg_perigee_deg": 88.4817,
      "mean_anomaly_deg": 271.6317,
      "mean_motion_rev_day": 15.30199828
    },
    {
      "epoch": "2026-03-30T13:39:55.202688Z",
      "apogee_km": 476.2014979126916,
      "perigee_km": 474.2710397303299,
      "latitude_deg": 1.593265909110873e-05,
      "longitude_deg": 163.97846058929457,
      "height_km": 476.19563624731416,
      "semi_major_axis_km": 6853.3732688215105,
      "eccentricity": 0.00014084,
      "inclination_deg": 53.1604,
      "raan_deg": 196.9177,
      "arg_perigee_deg": 93.6497,
      "mean_anomaly_deg": 266.4665,
      "mean_motion_rev_day": 15.301929
    },
    {
      "epoch": "2026-03-31T13:10:43.526496Z",
      "apogee_km": 475.8260438291927,
      "perigee_km": 474.71675114597565,
      "latitude_deg": 4.48091757000841e-05,
      "longitude_deg": 165.76287218887907,
      "height_km": 475.85081925447525,
      "semi_major_axis_km": 6853.408397487584,
      "eccentricity": 8.093e-05,
      "inclination_deg": 53.1621,
      "raan_deg": 192.3691,
      "arg_perigee_deg": 54.8045,
      "mean_anomaly_deg": 305.3032,
      "mean_motion_rev_day": 15.30181135
    },
    {
      "epoch": "2026-04-01T12:41:31.233408Z",
      "apogee_km": 475.92407407372684,
      "perigee_km": 474.56299269979627,
      "latitude_deg": -3.970338704475657e-05,
      "longitude_deg": 167.54387677080678,
      "height_km": 476.05113060992426,
      "semi_major_axis_km": 6853.380533386761,
      "eccentricity": 9.93e-05,
      "inclination_deg": 53.1628,
      "raan_deg": 187.8146,
      "arg_perigee_deg": 82.3012,
      "mean_anomaly_deg": 277.8101,
      "mean_motion_rev_day": 15.30190467
    },
    {
      "epoch": "2026-04-02T15:20:25.094112Z",
      "apogee_km": 475.66276673412085,
      "perigee_km": 474.8159635504444,
      "latitude_deg": 4.0518519078196266e-05,
      "longitude_deg": 121.56961138473285,
      "height_km": 475.96777938265984,
      "semi_major_axis_km": 6853.376365142282,
      "eccentricity": 6.178e-05,
      "inclination_deg": 53.1656,
      "raan_deg": 182.6591,
      "arg_perigee_deg": 66.1515,
      "mean_anomaly_deg": 293.9551,
      "mean_motion_rev_day": 15.30191863
    }
  ]
}